GREENCUBE (IO-117)      
1 53109U 22080E   26094.56827725 -.00000003  00000+0  00000+0 0  9995
2 53109  70.1528 323.8593 0009014 305.8170  54.1652  6.42583190 87336
UMKA 1 (RS40S)          
1 57172U 23091G   26095.82997185  .00008135  00000+0  37968-3 0  9990
2 57172  97.5117 154.8240 0013200  19.4867 340.6870 15.20026415153013
CUBESX-HSE 3 (RS42S)    
1 57178U 23091N   26095.85375367  .00016293  00000+0  57130-3 0  9998
2 57178  97.5148 160.6061 0010521 356.5062   3.6103 15.29479291153360
MONITOR-3 (RS58S)       
1 57180U 23091Q   26095.85845171  .00013303  00000+0  51179-3 0  9992
2 57180  97.5143 158.8305 0011627   2.2688 357.8600 15.26456761153253
MONITOR-4 (RS57S)       
1 57182U 23091S   26095.64535739  .00013730  00000+0  52671-3 0  9999
2 57182  97.5137 158.5827 0011583   3.6688 356.4633 15.26544652153225
MONITOR-2 (RS39S)       
1 57184U 23091U   26095.82999283  .00006665  00000+0  32811-3 0  9992
2 57184  97.5140 154.5900 0011438  12.9997 347.1529 15.18264403152970
SVYATOBOR 1 (RS60S)     
1 57187U 23091X   26095.86321146  .00011310  00000+0  44956-3 0  9992
2 57187  97.5149 159.3250 0009089 356.3379   3.7791 15.25431754153285
VIZARD-METEO (RS38S)    
1 57189U 23091Z   26095.84721861  .00020158  00000+0  61716-3 0  9993
2 57189  97.5139 163.9920 0006434 337.8197  22.2766 15.33836299153598
NANOZOND 1 (RS49S)      
1 57190U 23091AA  26095.75220645  .00623626  16089-3  17422-2 0  9990
2 57190  97.4948 178.4793 0007396 261.2444  98.7993 15.93621227154555
POLYTECH-UNIVERSE 3 (R*)
1 57191U 23091AB  26095.86662006  .00006089  00000+0  29789-3 0  9994
2 57191  97.5115 154.1326 0016192  26.9035 333.3035 15.18457470152975
UTMN 2 (RS27S)          
1 57203U 23091AP  26095.84653010  .00015895  00000+0  54317-3 0  9991
2 57203  97.5141 162.1436 0007405 345.1189  14.9832 15.30349915153473
KUZGTU 1 (RS47S)        
1 57217U 23091AV  26095.85023034  .00014985  00000+0  54522-3 0  9991
2 57217  97.5123 159.6628 0010797   0.0589   0.0650 15.28282804153329
SONATE-2                
1 59112U 24043Q   26095.85993139  .00044713  00000+0  69663-3 0  9991
2 59112  97.5445 242.1499 0007687 109.2271 250.9814 15.53719674116640
MESAT1                  
1 60209U 24125G   26095.85824387  .00052176  00000+0  73479-3 0  9991
2 60209  97.2400 312.0371 0012742 123.2982 236.9496 15.56389383 98299
OOV-CUBE (TUBSAT-30)    
1 60240U 24128F   26095.45249674  .00002993  00000+0  23402-3 0  9998
2 60240  61.9933 119.1263 0052274 117.8694 242.7706 15.02425780 95189
COLIBRI-S (RS67S)       
1 61746U 24199M   26095.83791445  .00025012  00000+0  53367-3 0  9998
2 61746  97.3101 329.1505 0009359 172.3038 187.8356 15.44829521126235
