[{"OBJECT_NAME":"GREENCUBE (IO-117)","OBJECT_ID":"2022-080E","EPOCH":"2026-04-04T13:38:19.154400","MEAN_MOTION":6.4258319,"ECCENTRICITY":0.0009014,"INCLINATION":70.1528,"RA_OF_ASC_NODE":323.8593,"ARG_OF_PERICENTER":305.817,"MEAN_ANOMALY":54.1652,"EPHEMERIS_TYPE":0,"CLASSIFICATION_TYPE":"U","NORAD_CAT_ID":53109,"ELEMENT_SET_NO":999,"REV_AT_EPOCH":8733,"BSTAR":0,"MEAN_MOTION_DOT":-3.0e-8,"MEAN_MOTION_DDOT":0},{"OBJECT_NAME":"UMKA 1 (RS40S)","OBJECT_ID":"2023-091G","EPOCH":"2026-04-05T19:55:09.567840","MEAN_MOTION":15.20026415,"ECCENTRICITY":0.00132,"INCLINATION":97.5117,"RA_OF_ASC_NODE":154.824,"ARG_OF_PERICENTER":19.4867,"MEAN_ANOMALY":340.687,"EPHEMERIS_TYPE":0,"CLASSIFICATION_TYPE":"U","NORAD_CAT_ID":57172,"ELEMENT_SET_NO":999,"REV_AT_EPOCH":15301,"BSTAR":0.00037968,"MEAN_MOTION_DOT":8.135e-5,"MEAN_MOTION_DDOT":0},{"OBJECT_NAME":"CUBESX-HSE 3 (RS42S)","OBJECT_ID":"2023-091N","EPOCH":"2026-04-05T20:29:24.317088","MEAN_MOTION":15.29479291,"ECCENTRICITY":0.0010521,"INCLINATION":97.5148,"RA_OF_ASC_NODE":160.6061,"ARG_OF_PERICENTER":356.5062,"MEAN_ANOMALY":3.6103,"EPHEMERIS_TYPE":0,"CLASSIFICATION_TYPE":"U","NORAD_CAT_ID":57178,"ELEMENT_SET_NO":999,"REV_AT_EPOCH":15336,"BSTAR":0.0005713,"MEAN_MOTION_DOT":0.00016293,"MEAN_MOTION_DDOT":0},{"OBJECT_NAME":"MONITOR-3 (RS58S)","OBJECT_ID":"2023-091Q","EPOCH":"2026-04-05T20:36:10.227744","MEAN_MOTION":15.26456761,"ECCENTRICITY":0.0011627,"INCLINATION":97.5143,"RA_OF_ASC_NODE":158.8305,"ARG_OF_PERICENTER":2.2688,"MEAN_ANOMALY":357.86,"EPHEMERIS_TYPE":0,"CLASSIFICATION_TYPE":"U","NORAD_CAT_ID":57180,"ELEMENT_SET_NO":999,"REV_AT_EPOCH":15325,"BSTAR":0.00051179,"MEAN_MOTION_DOT":0.00013303,"MEAN_MOTION_DDOT":0},{"OBJECT_NAME":"MONITOR-4 (RS57S)","OBJECT_ID":"2023-091S","EPOCH":"2026-04-05T15:29:18.878496","MEAN_MOTION":15.26544652,"ECCENTRICITY":0.0011583,"INCLINATION":97.5137,"RA_OF_ASC_NODE":158.5827,"ARG_OF_PERICENTER":3.6688,"MEAN_ANOMALY":356.4633,"EPHEMERIS_TYPE":0,"CLASSIFICATION_TYPE":"U","NORAD_CAT_ID":57182,"ELEMENT_SET_NO":999,"REV_AT_EPOCH":15322,"BSTAR":0.00052671,"MEAN_MOTION_DOT":0.0001373,"MEAN_MOTION_DDOT":0},{"OBJECT_NAME":"MONITOR-2 (RS39S)","OBJECT_ID":"2023-091U","EPOCH":"2026-04-05T19:55:11.380512","MEAN_MOTION":15.18264403,"ECCENTRICITY":0.0011438,"INCLINATION":97.514,"RA_OF_ASC_NODE":154.59,"ARG_OF_PERICENTER":12.9997,"MEAN_ANOMALY":347.1529,"EPHEMERIS_TYPE":0,"CLASSIFICATION_TYPE":"U","NORAD_CAT_ID":57184,"ELEMENT_SET_NO":999,"REV_AT_EPOCH":15297,"BSTAR":0.00032811,"MEAN_MOTION_DOT":6.665e-5,"MEAN_MOTION_DDOT":0},{"OBJECT_NAME":"SVYATOBOR 1 (RS60S)","OBJECT_ID":"2023-091X","EPOCH":"2026-04-05T20:43:01.470144","MEAN_MOTION":15.25431754,"ECCENTRICITY":0.0009089,"INCLINATION":97.5149,"RA_OF_ASC_NODE":159.325,"ARG_OF_PERICENTER":356.3379,"MEAN_ANOMALY":3.7791,"EPHEMERIS_TYPE":0,"CLASSIFICATION_TYPE":"U","NORAD_CAT_ID":57187,"ELEMENT_SET_NO":999,"REV_AT_EPOCH":15328,"BSTAR":0.00044956,"MEAN_MOTION_DOT":0.0001131,"MEAN_MOTION_DDOT":0},{"OBJECT_NAME":"VIZARD-METEO (RS38S)","OBJECT_ID":"2023-091Z","EPOCH":"2026-04-05T20:19:59.687904","MEAN_MOTION":15.33836299,"ECCENTRICITY":0.0006434,"INCLINATION":97.5139,"RA_OF_ASC_NODE":163.992,"ARG_OF_PERICENTER":337.8197,"MEAN_ANOMALY":22.2766,"EPHEMERIS_TYPE":0,"CLASSIFICATION_TYPE":"U","NORAD_CAT_ID":57189,"ELEMENT_SET_NO":999,"REV_AT_EPOCH":15359,"BSTAR":0.00061716,"MEAN_MOTION_DOT":0.00020158,"MEAN_MOTION_DDOT":0},{"OBJECT_NAME":"NANOZOND 1 (RS49S)","OBJECT_ID":"2023-091AA","EPOCH":"2026-04-05T18:03:10.637280","MEAN_MOTION":15.93621227,"ECCENTRICITY":0.0007396,"INCLINATION":97.4948,"RA_OF_ASC_NODE":178.4793,"ARG_OF_PERICENTER":261.2444,"MEAN_ANOMALY":98.7993,"EPHEMERIS_TYPE":0,"CLASSIFICATION_TYPE":"U","NORAD_CAT_ID":57190,"ELEMENT_SET_NO":999,"REV_AT_EPOCH":15455,"BSTAR":0.0017422,"MEAN_MOTION_DOT":0.00623626,"MEAN_MOTION_DDOT":0.00016089},{"OBJECT_NAME":"POLYTECH-UNIVERSE 3 (RS46S)","OBJECT_ID":"2023-091AB","EPOCH":"2026-04-05T20:47:55.973184","MEAN_MOTION":15.1845747,"ECCENTRICITY":0.0016192,"INCLINATION":97.5115,"RA_OF_ASC_NODE":154.1326,"ARG_OF_PERICENTER":26.9035,"MEAN_ANOMALY":333.3035,"EPHEMERIS_TYPE":0,"CLASSIFICATION_TYPE":"U","NORAD_CAT_ID":57191,"ELEMENT_SET_NO":999,"REV_AT_EPOCH":15297,"BSTAR":0.00029789,"MEAN_MOTION_DOT":6.089e-5,"MEAN_MOTION_DDOT":0},{"OBJECT_NAME":"UTMN 2 (RS27S)","OBJECT_ID":"2023-091AP","EPOCH":"2026-04-05T20:19:00.200640","MEAN_MOTION":15.30349915,"ECCENTRICITY":0.0007405,"INCLINATION":97.5141,"RA_OF_ASC_NODE":162.1436,"ARG_OF_PERICENTER":345.1189,"MEAN_ANOMALY":14.9832,"EPHEMERIS_TYPE":0,"CLASSIFICATION_TYPE":"U","NORAD_CAT_ID":57203,"ELEMENT_SET_NO":999,"REV_AT_EPOCH":15347,"BSTAR":0.00054317,"MEAN_MOTION_DOT":0.00015895,"MEAN_MOTION_DDOT":0},{"OBJECT_NAME":"KUZGTU 1 (RS47S)","OBJECT_ID":"2023-091AV","EPOCH":"2026-04-05T20:24:19.901376","MEAN_MOTION":15.28282804,"ECCENTRICITY":0.0010797,"INCLINATION":97.5123,"RA_OF_ASC_NODE":159.6628,"ARG_OF_PERICENTER":0.0589,"MEAN_ANOMALY":0.065,"EPHEMERIS_TYPE":0,"CLASSIFICATION_TYPE":"U","NORAD_CAT_ID":57217,"ELEMENT_SET_NO":999,"REV_AT_EPOCH":15332,"BSTAR":0.00054522,"MEAN_MOTION_DOT":0.00014985,"MEAN_MOTION_DDOT":0},{"OBJECT_NAME":"SONATE-2","OBJECT_ID":"2024-043Q","EPOCH":"2026-04-05T20:38:18.072096","MEAN_MOTION":15.53719674,"ECCENTRICITY":0.0007687,"INCLINATION":97.5445,"RA_OF_ASC_NODE":242.1499,"ARG_OF_PERICENTER":109.2271,"MEAN_ANOMALY":250.9814,"EPHEMERIS_TYPE":0,"CLASSIFICATION_TYPE":"U","NORAD_CAT_ID":59112,"ELEMENT_SET_NO":999,"REV_AT_EPOCH":11664,"BSTAR":0.00069663,"MEAN_MOTION_DOT":0.00044713,"MEAN_MOTION_DDOT":0},{"OBJECT_NAME":"MESAT1","OBJECT_ID":"2024-125G","EPOCH":"2026-04-05T20:35:52.270368","MEAN_MOTION":15.56389383,"ECCENTRICITY":0.0012742,"INCLINATION":97.24,"RA_OF_ASC_NODE":312.0371,"ARG_OF_PERICENTER":123.2982,"MEAN_ANOMALY":236.9496,"EPHEMERIS_TYPE":0,"CLASSIFICATION_TYPE":"U","NORAD_CAT_ID":60209,"ELEMENT_SET_NO":999,"REV_AT_EPOCH":9829,"BSTAR":0.00073479,"MEAN_MOTION_DOT":0.00052176,"MEAN_MOTION_DDOT":0},{"OBJECT_NAME":"OOV-CUBE (TUBSAT-30)","OBJECT_ID":"2024-128F","EPOCH":"2026-04-05T10:51:35.718336","MEAN_MOTION":15.0242578,"ECCENTRICITY":0.00522747,"INCLINATION":61.9933,"RA_OF_ASC_NODE":119.1263,"ARG_OF_PERICENTER":117.8694,"MEAN_ANOMALY":242.7706,"EPHEMERIS_TYPE":0,"CLASSIFICATION_TYPE":"U","NORAD_CAT_ID":60240,"ELEMENT_SET_NO":999,"REV_AT_EPOCH":9518,"BSTAR":0.0002340195,"MEAN_MOTION_DOT":2.993e-5,"MEAN_MOTION_DDOT":0},{"OBJECT_NAME":"COLIBRI-S (RS67S)","OBJECT_ID":"2024-199M","EPOCH":"2026-04-05T20:06:35.808480","MEAN_MOTION":15.44829521,"ECCENTRICITY":0.0009359,"INCLINATION":97.3101,"RA_OF_ASC_NODE":329.1505,"ARG_OF_PERICENTER":172.3038,"MEAN_ANOMALY":187.8356,"EPHEMERIS_TYPE":0,"CLASSIFICATION_TYPE":"U","NORAD_CAT_ID":61746,"ELEMENT_SET_NO":999,"REV_AT_EPOCH":12623,"BSTAR":0.00053367,"MEAN_MOTION_DOT":0.00025012,"MEAN_MOTION_DDOT":0}]
